{
    "links": {
        "self": "http://www.neowsapp.com/rest/v1/neo/3092520?api_key=iIulBulltgU6a56xZRHN4H3l9WmuAYTsLGpBGhQ2"
    },
    "id": "3092520",
    "neo_reference_id": "3092520",
    "name": "(2001 WN15)",
    "designation": "2001 WN15",
    "nasa_jpl_url": "http://ssd.jpl.nasa.gov/sbdb.cgi?sstr=3092520",
    "absolute_magnitude_h": 19.4,
    "estimated_diameter": {
        "kilometers": {
            "estimated_diameter_min": 0.3503926411,
            "estimated_diameter_max": 0.7835017643
        },
        "meters": {
            "estimated_diameter_min": 350.3926411083,
            "estimated_diameter_max": 783.5017643338
        },
        "miles": {
            "estimated_diameter_min": 0.2177238258,
            "estimated_diameter_max": 0.4868452748
        },
        "feet": {
            "estimated_diameter_min": 1149.5821926537,
            "estimated_diameter_max": 2570.543928497
        }
    },
    "is_potentially_hazardous_asteroid": false,
    "close_approach_data": [
        {
            "close_approach_date": "2001-09-04",
            "close_approach_date_full": "2001-Sep-04 09:47",
            "epoch_date_close_approach": 999596820000,
            "relative_velocity": {
                "kilometers_per_second": "57.1482416362",
                "kilometers_per_hour": "205733.6698901411",
                "miles_per_hour": "127834.9017159046"
            },
            "miss_distance": {
                "astronomical": "0.0040007181",
                "lunar": "1.5562793409",
                "kilometers": "598498.906230447",
                "miles": "371889.9755642886"
            },
            "orbiting_body": "Merc"
        },
        {
            "close_approach_date": "2001-11-11",
            "close_approach_date_full": "2001-Nov-11 22:10",
            "epoch_date_close_approach": 1005516600000,
            "relative_velocity": {
                "kilometers_per_second": "32.0150896912",
                "kilometers_per_hour": "115254.322888208",
                "miles_per_hour": "71614.5541301757"
            },
            "miss_distance": {
                "astronomical": "0.3356428219",
                "lunar": "130.5650577191",
                "kilometers": "50211451.237029353",
                "miles": "31199949.0378289514"
            },
            "orbiting_body": "Earth"
        }
    ],
    "orbital_data": {
        "orbit_id": "10",
        "orbit_determination_date": "2017-04-06 09:15:47",
        "first_observation_date": "2001-11-24",
        "last_observation_date": "2001-12-06",
        "data_arc_in_days": 12,
        "observations_used": 27,
        "orbit_uncertainty": "9",
        "minimum_orbit_intersection": ".220417",
        "jupiter_tisserand_invariant": "2.669",
        "epoch_osculation": "2452241.5",
        "eccentricity": ".8340984283018726",
        "semi_major_axis": "2.28894648142011",
        "inclination": "57.26949924383597",
        "ascending_node_longitude": "244.4886756061478",
        "orbital_period": "1264.887452607777",
        "perihelion_distance": ".3797398188004947",
        "perihelion_argument": "51.45522847492749",
        "aphelion_distance": "4.198153144039725",
        "perihelion_time": "2452167.673424140629",
        "mean_anomaly": "21.01180405780725",
        "mean_motion": ".2846103020927275",
        "equinox": "J2000",
        "orbit_class": {
            "orbit_class_type": "APO",
            "orbit_class_description": "Near-Earth asteroid orbits which cross the Earth’s orbit similar to that of 1862 Apollo",
            "orbit_class_range": "a (semi-major axis) > 1.0 AU; q (perihelion) < 1.017 AU"
        }
    },
    "is_sentry_object": false
}